
# Worst residual: 33.12 km
# MJD 59628.000000 (2022 Feb 18  0:00)
WE0913A = DSCOVR object = 2015-007B = NORAD 40391
1 40391U 15007B   22049.49919926  .00000000  00000-0  00000-0 2 14769
2 40391 035.4939 011.0277 8728671 147.5423 131.3582 00.03870968    09

# Worst residual: 34.01 km
# MJD 59629.000000 (2022 Feb 19  0:00)
WE0913A = DSCOVR object = 2015-007B = NORAD 40391
1 40391U 15007B   22050.49919926  .00000000  00000-0  00000-0 2 14761
2 40391 035.7317 010.7042 8721560 148.0421 143.8219 00.03853231    01

# Worst residual: 33.97 km
# MJD 59630.000000 (2022 Feb 20  0:00)
WE0913A = DSCOVR object = 2015-007B = NORAD 40391
1 40391U 15007B   22051.49919926  .00000000  00000-0  00000-0 2 14762
2 40391 035.9657 010.4129 8709858 148.5099 156.2352 00.03838981    06

# Worst residual: 32.92 km
# MJD 59631.000000 (2022 Feb 21  0:00)
WE0913A = DSCOVR object = 2015-007B = NORAD 40391
1 40391U 15007B   22052.49919926  .00000000  00000-0  00000-0 2 14763
2 40391 036.1884 010.1589 8693981 148.9304 168.6592 00.03828142    01

# Worst residual: 30.80 km
# MJD 59632.000000 (2022 Feb 22  0:00)
WE0913A = DSCOVR object = 2015-007B = NORAD 40391
1 40391U 15007B   22053.49919926  .00000000  00000-0  00000-0 2 14764
2 40391 036.3945 009.9436 8674777 149.2921 181.1526 00.03820500    06

# Worst residual: 27.64 km
# MJD 59633.000000 (2022 Feb 23  0:00)
WE0913A = DSCOVR object = 2015-007B = NORAD 40391
1 40391U 15007B   22054.49919926  .00000000  00000-0  00000-0 2 14765
2 40391 036.5810 009.7653 8653525 149.5881 193.7679 00.03815718    07

# Worst residual: 23.52 km
# MJD 59634.000000 (2022 Feb 24  0:00)
WE0913A = DSCOVR object = 2015-007B = NORAD 40391
1 40391U 15007B   22055.49919926  .00000000  00000-0  00000-0 2 14766
2 40391 036.7479 009.6198 8631900 149.8170 206.5490 00.03813353    07

# Worst residual: 18.56 km
# MJD 59635.000000 (2022 Feb 25  0:00)
WE0913A = DSCOVR object = 2015-007B = NORAD 40391
1 40391U 15007B   22056.49919926  .00000000  00000-0  00000-0 2 14767
2 40391 036.8980 009.5012 8611915 149.9834 219.5291 00.03812877    04

# Worst residual: 12.81 km
# MJD 59636.000000 (2022 Feb 26  0:00)
WE0913A = DSCOVR object = 2015-007B = NORAD 40391
1 40391U 15007B   22057.49919926  .00000000  00000-0  00000-0 2 14768
2 40391 037.0367 009.4029 8595842 150.0982 232.7299 00.03813681    09

# Worst residual: 5.82 km
# MJD 59637.000000 (2022 Feb 27  0:00)
WE0913A = DSCOVR object = 2015-007B = NORAD 40391
1 40391U 15007B   22058.49919926  .00000000  00000-0  00000-0 2 14769
2 40391 037.1730 009.3174 8586076 150.1783 246.1673 00.03814964    03

# Worst residual: 4.96 km
# MJD 59638.000000 (2022 Feb 28  0:00)
WE0913A = DSCOVR object = 2015-007B = NORAD 40391
1 40391U 15007B   22059.49919926  .00000000  00000-0  00000-0 2 14760
2 40391 037.3160 009.2397 8585894 150.2507 259.8455 00.03815996    05

# Worst residual: 14.94 km
# MJD 59639.000000 (2022 Mar  1  0:00)
WE0913A = DSCOVR object = 2015-007B = NORAD 40391
1 40391U 15007B   22060.49919926  .00000000  00000-0  00000-0 2 14762
2 40391 037.4914 009.1601 8598691 150.3441 273.8258 00.03813859    00

# Worst residual: 40.72 km
# MJD 59640.000000 (2022 Mar  2  0:00)
WE0913A = DSCOVR object = 2015-007B = NORAD 40391
1 40391U 15007B   22061.49919926  .00000000  00000-0  00000-0 2 14763
2 40391 037.7493 009.0694 8635273 150.5361 288.2333 00.03803008    06

# Worst residual: 158.36 km
# MJD 59641.000000 (2022 Mar  3  0:00)
WE0913A = DSCOVR object = 2015-007B = NORAD 40391
1 40391U 15007B   22062.49919926  .00000000  00000-0  00000-0 2 14764
2 40391 038.3844 008.9203 8726860 150.9250 303.9706 00.03736895    09
